start=new Date('2022-11-14T00:00:00.000Z').valueOf();
sats=[{"CLASSIFICATION_TYPE":"U","MEAN_MOTION":"15.11289008","SITE":"AFETR","OBJECT_ID":"2020-019BL","DECAY_DATE":null,"NORAD_CAT_ID":"45418","TIME_SYSTEM":"UTC","MEAN_ELEMENT_THEORY":"SGP4","BSTAR":"0.00182830000000","TLE_LINE2":"2 45418  52.9960 227.4345 0004404 118.1081 242.0355 15.11289008146438","MEAN_MOTION_DOT":"0.00030978","PERIAPSIS":"529.227","MEAN_MOTION_DDOT":"0.0000000000000","PERIOD":"95.283","EPHEMERIS_TYPE":"0","INCLINATION":"52.9960","ECCENTRICITY":"0.00044040","LAUNCH_DATE":"2020-03-18","SEMIMAJOR_AXIS":"6910.405","APOAPSIS":"535.313","CENTER_NAME":"EARTH","ELEMENT_SET_NO":"999","RA_OF_ASC_NODE":"227.4345","GP_ID":"217623633","TLE_LINE1":"1 45418U 20019BL  22317.48860838  .00030978  00000-0  18283-2 0  9995","REV_AT_EPOCH":"14643","ARG_OF_PERICENTER":"118.1081","OBJECT_NAME":"STARLINK-1299","EPOCH":"2022-11-13T11:43:35.764032","MEAN_ANOMALY":"242.0355","OBJECT_TYPE":"PAYLOAD","RCS_SIZE":"LARGE","COUNTRY_CODE":"US","FILE":"3653238","REF_FRAME":"TEME"},{"OBJECT_ID":"2020-019BM","MEAN_MOTION":"15.06398132","SITE":"AFETR","CLASSIFICATION_TYPE":"U","BSTAR":"-0.00001309400000","TLE_LINE2":"2 45419  53.0525 207.4768 0001780  67.1466 292.9710 15.06398132146790","NORAD_CAT_ID":"45419","TIME_SYSTEM":"UTC","MEAN_ELEMENT_THEORY":"SGP4","DECAY_DATE":null,"PERIOD":"95.592","PERIAPSIS":"545.987","MEAN_MOTION_DDOT":"0.0000000000000","MEAN_MOTION_DOT":"-0.00000477","SEMIMAJOR_AXIS":"6925.354","LAUNCH_DATE":"2020-03-18","ECCENTRICITY":"0.00017800","INCLINATION":"53.0525","EPHEMERIS_TYPE":"0","ELEMENT_SET_NO":"999","APOAPSIS":"548.452","CENTER_NAME":"EARTH","ARG_OF_PERICENTER":"67.1466","REV_AT_EPOCH":"14679","GP_ID":"217689215","RA_OF_ASC_NODE":"207.4768","TLE_LINE1":"1 45419U 20019BM  22317.69623249 -.00000477  00000-0 -13094-4 0  9992","MEAN_ANOMALY":"292.9710","OBJECT_TYPE":"PAYLOAD","RCS_SIZE":"LARGE","OBJECT_NAME":"STARLINK-1308","EPOCH":"2022-11-13T16:42:34.487136","FILE":"3653957","REF_FRAME":"TEME","COUNTRY_CODE":"US"},{"LAUNCH_DATE":"2020-04-22","SEMIMAJOR_AXIS":"6925.291","ECCENTRICITY":"0.00015740","INCLINATION":"53.0531","EPHEMERIS_TYPE":"0","PERIOD":"95.591","MEAN_MOTION_DDOT":"0.0000000000000","PERIAPSIS":"546.066","MEAN_MOTION_DOT":"0.00005874","TLE_LINE2":"2 45531  53.0531 147.3180 0001574  78.5687 281.5478 15.06418801142421","BSTAR":"0.00041270000000","MEAN_ELEMENT_THEORY":"SGP4","NORAD_CAT_ID":"45531","TIME_SYSTEM":"UTC","DECAY_DATE":null,"OBJECT_ID":"2020-025A","SITE":"AFETR","MEAN_MOTION":"15.06418801","CLASSIFICATION_TYPE":"U","REF_FRAME":"TEME","FILE":"3653957","COUNTRY_CODE":"US","RCS_SIZE":"LARGE","OBJECT_TYPE":"PAYLOAD","MEAN_ANOMALY":"281.5478","EPOCH":"2022-11-13T17:33:00.932256","OBJECT_NAME":"STARLINK-1329","ARG_OF_PERICENTER":"78.5687","REV_AT_EPOCH":"14242","TLE_LINE1":"1 45531U 20025A   22317.73126079  .00005874  00000-0  41270-3 0  9998","RA_OF_ASC_NODE":"147.3180","GP_ID":"217689727","ELEMENT_SET_NO":"999","CENTER_NAME":"EARTH","APOAPSIS":"548.246"},{"ELEMENT_SET_NO":"999","APOAPSIS":"548.268","CENTER_NAME":"EARTH","ARG_OF_PERICENTER":"83.0767","GP_ID":"217689979","RA_OF_ASC_NODE":"147.2757","TLE_LINE1":"1 45532U 20025B   22317.74232660  .00008873  00000-0  61369-3 0  9997","REV_AT_EPOCH":"14242","OBJECT_TYPE":"PAYLOAD","MEAN_ANOMALY":"277.0399","RCS_SIZE":"LARGE","OBJECT_NAME":"STARLINK-1338","EPOCH":"2022-11-13T17:48:57.018240","COUNTRY_CODE":"US","FILE":"3653957","REF_FRAME":"TEME","MEAN_MOTION":"15.06407478","SITE":"AFETR","OBJECT_ID":"2020-025B","CLASSIFICATION_TYPE":"U","TIME_SYSTEM":"UTC","NORAD_CAT_ID":"45532","MEAN_ELEMENT_THEORY":"SGP4","BSTAR":"0.00061369000000","TLE_LINE2":"2 45532  53.0538 147.2757 0001556  83.0767 277.0399 15.06407478142428","DECAY_DATE":null,"PERIOD":"95.592","MEAN_MOTION_DOT":"0.00008873","PERIAPSIS":"546.113","MEAN_MOTION_DDOT":"0.0000000000000","ECCENTRICITY":"0.00015560","INCLINATION":"53.0538","LAUNCH_DATE":"2020-04-22","SEMIMAJOR_AXIS":"6925.326","EPHEMERIS_TYPE":"0"},{"ARG_OF_PERICENTER":"57.0543","REV_AT_EPOCH":"14243","TLE_LINE1":"1 45534U 20025D   22317.81971856  .00005504  00000-0  38813-3 0  9990","GP_ID":"217688728","RA_OF_ASC_NODE":"146.9096","ELEMENT_SET_NO":"999","CENTER_NAME":"EARTH","APOAPSIS":"548.494","REF_FRAME":"TEME","FILE":"3653957","COUNTRY_CODE":"US","RCS_SIZE":"LARGE","MEAN_ANOMALY":"303.0623","OBJECT_TYPE":"PAYLOAD","EPOCH":"2022-11-13T19:40:23.683584","OBJECT_NAME":"STARLINK-1341","TLE_LINE2":"2 45534  53.0531 146.9096 0001848  57.0543 303.0623 15.06399860142438","BSTAR":"0.00038813000000","MEAN_ELEMENT_THEORY":"SGP4","NORAD_CAT_ID":"45534","TIME_SYSTEM":"UTC","DECAY_DATE":null,"OBJECT_ID":"2020-025D","SITE":"AFETR","MEAN_MOTION":"15.06399860","CLASSIFICATION_TYPE":"U","LAUNCH_DATE":"2020-04-22","SEMIMAJOR_AXIS":"6925.349","ECCENTRICITY":"0.00018480","INCLINATION":"53.0531","EPHEMERIS_TYPE":"0","PERIOD":"95.592","MEAN_MOTION_DDOT":"0.0000000000000","PERIAPSIS":"545.934","MEAN_MOTION_DOT":"0.00005504"},{"COUNTRY_CODE":"US","REF_FRAME":"TEME","FILE":"3653957","RCS_SIZE":"LARGE","MEAN_ANOMALY":"272.8517","OBJECT_TYPE":"PAYLOAD","EPOCH":"2022-11-13T18:31:24.480768","OBJECT_NAME":"STARLINK-1350","ARG_OF_PERICENTER":"87.2659","TLE_LINE1":"1 45535U 20025E   22317.77181112  .00004599  00000-0  32732-3 0  9991","GP_ID":"217689476","RA_OF_ASC_NODE":"147.1318","REV_AT_EPOCH":"14243","ELEMENT_SET_NO":"999","CENTER_NAME":"EARTH","APOAPSIS":"548.311","INCLINATION":"53.0539","ECCENTRICITY":"0.00016340","LAUNCH_DATE":"2020-04-22","SEMIMAJOR_AXIS":"6925.315","EPHEMERIS_TYPE":"0","PERIOD":"95.591","MEAN_MOTION_DOT":"0.00004599","MEAN_MOTION_DDOT":"0.0000000000000","PERIAPSIS":"546.048","MEAN_ELEMENT_THEORY":"SGP4","NORAD_CAT_ID":"45535","TIME_SYSTEM":"UTC","TLE_LINE2":"2 45535  53.0539 147.1318 0001634  87.2659 272.8517 15.06411009142438","BSTAR":"0.00032732000000","DECAY_DATE":null,"SITE":"AFETR","MEAN_MOTION":"15.06411009","OBJECT_ID":"2020-025E","CLASSIFICATION_TYPE":"U"},{"DECAY_DATE":null,"TLE_LINE2":"2 45536  53.0531 147.1162 0001483  90.8475 269.2684 15.06407446142420","BSTAR":"0.00000765030000","MEAN_ELEMENT_THEORY":"SGP4","NORAD_CAT_ID":"45536","TIME_SYSTEM":"UTC","CLASSIFICATION_TYPE":"U","OBJECT_ID":"2020-025F","SITE":"AFETR","MEAN_MOTION":"15.06407446","EPHEMERIS_TYPE":"0","LAUNCH_DATE":"2020-04-22","SEMIMAJOR_AXIS":"6925.326","ECCENTRICITY":"0.00014830","INCLINATION":"53.0531","MEAN_MOTION_DDOT":"0.0000000000000","PERIAPSIS":"546.164","MEAN_MOTION_DOT":"-0.00000168","PERIOD":"95.592","REV_AT_EPOCH":"14242","TLE_LINE1":"1 45536U 20025F   22317.77549169 -.00000168  00000-0  76503-5 0  9997","GP_ID":"217690227","RA_OF_ASC_NODE":"147.1162","ARG_OF_PERICENTER":"90.8475","CENTER_NAME":"EARTH","APOAPSIS":"548.218","ELEMENT_SET_NO":"999","REF_FRAME":"TEME","FILE":"3653957","COUNTRY_CODE":"US","EPOCH":"2022-11-13T18:36:42.482016","OBJECT_NAME":"STARLINK-1352","RCS_SIZE":"LARGE","OBJECT_TYPE":"PAYLOAD","MEAN_ANOMALY":"269.2684"},{"DECAY_DATE":null,"MEAN_ELEMENT_THEORY":"SGP4","NORAD_CAT_ID":"45537","TIME_SYSTEM":"UTC","TLE_LINE2":"2 45537  52.9733  77.4102 0003188 295.7571  64.3101 15.36927921143358","BSTAR":"0.00229460000000","CLASSIFICATION_TYPE":"U","SITE":"AFETR","MEAN_MOTION":"15.36927921","OBJECT_ID":"2020-025G","EPHEMERIS_TYPE":"0","INCLINATION":"52.9733","ECCENTRICITY":"0.00031880","LAUNCH_DATE":"2020-04-22","SEMIMAJOR_AXIS":"6833.337","MEAN_MOTION_DOT":"0.00084647","MEAN_MOTION_DDOT":"0.0000000000000","PERIAPSIS":"453.024","PERIOD":"93.693","TLE_LINE1":"1 45537U 20025G   22317.65361616  .00084647  00000-0  22946-2 0  9996","GP_ID":"217690479","RA_OF_ASC_NODE":"77.4102","REV_AT_EPOCH":"14335","ARG_OF_PERICENTER":"295.7571","CENTER_NAME":"EARTH","APOAPSIS":"457.380","ELEMENT_SET_NO":"999","COUNTRY_CODE":"US","REF_FRAME":"TEME","FILE":"3653957","EPOCH":"2022-11-13T15:41:12.436224","OBJECT_NAME":"STARLINK-1353","RCS_SIZE":"LARGE","OBJECT_TYPE":"PAYLOAD","MEAN_ANOMALY":"64.3101"},{"PERIOD":"95.592","MEAN_MOTION_DDOT":"0.0000000000000","PERIAPSIS":"546.128","MEAN_MOTION_DOT":"0.00004684","LAUNCH_DATE":"2020-04-22","SEMIMAJOR_AXIS":"6925.326","ECCENTRICITY":"0.00015350","INCLINATION":"53.0517","EPHEMERIS_TYPE":"0","OBJECT_ID":"2020-025H","SITE":"AFETR","MEAN_MOTION":"15.06407275","CLASSIFICATION_TYPE":"U","TLE_LINE2":"2 45538  53.0517 147.0038 0001535  67.7498 292.3654 15.06407275142438","BSTAR":"0.00033306000000","MEAN_ELEMENT_THEORY":"SGP4","NORAD_CAT_ID":"45538","TIME_SYSTEM":"UTC","DECAY_DATE":null,"RCS_SIZE":"LARGE","MEAN_ANOMALY":"292.3654","OBJECT_TYPE":"PAYLOAD","EPOCH":"2022-11-13T19:13:52.620672","OBJECT_NAME":"STARLINK-1362","REF_FRAME":"TEME","FILE":"3653957","COUNTRY_CODE":"US","ELEMENT_SET_NO":"999","CENTER_NAME":"EARTH","APOAPSIS":"548.254","ARG_OF_PERICENTER":"67.7498","REV_AT_EPOCH":"14243","TLE_LINE1":"1 45538U 20025H   22317.80130348  .00004684  00000-0  33306-3 0  9996","RA_OF_ASC_NODE":"147.0038","GP_ID":"217689227"},{"ELEMENT_SET_NO":"999","APOAPSIS":"548.089","CENTER_NAME":"EARTH","ARG_OF_PERICENTER":"90.4809","REV_AT_EPOCH":"14242","GP_ID":"217688977","RA_OF_ASC_NODE":"147.1084","TLE_LINE1":"1 45540U 20025K   22317.77915995 -.00002014  00000-0 -11636-3 0  9993","MEAN_ANOMALY":"269.6325","OBJECT_TYPE":"PAYLOAD","RCS_SIZE":"LARGE","OBJECT_NAME":"STARLINK-1368","EPOCH":"2022-11-13T18:41:59.419680","FILE":"3653957","REF_FRAME":"TEME","COUNTRY_CODE":"US","OBJECT_ID":"2020-025K","MEAN_MOTION":"15.06400639","SITE":"AFETR","CLASSIFICATION_TYPE":"U","BSTAR":"-0.00011636000000","TLE_LINE2":"2 45540  53.0537 147.1084 0001267  90.4809 269.6325 15.06400639142424","TIME_SYSTEM":"UTC","NORAD_CAT_ID":"45540","MEAN_ELEMENT_THEORY":"SGP4","DECAY_DATE":null,"PERIOD":"95.592","PERIAPSIS":"546.334","MEAN_MOTION_DDOT":"0.0000000000000","MEAN_MOTION_DOT":"-0.00002014","SEMIMAJOR_AXIS":"6925.347","LAUNCH_DATE":"2020-04-22","INCLINATION":"53.0537","ECCENTRICITY":"0.00012670","EPHEMERIS_TYPE":"0"}];
